NORAD_CAT_ID,OBJECT_NAME,OBJECT_TYPE,EPOCH,MEAN_MOTION,ECCENTRICITY,INCLINATION,RA_OF_ASC_NODE,ARG_OF_PERICENTER,MEAN_ANOMALY,BSTAR,MEAN_MOTION_DOT,MEAN_MOTION_DDOT,TLE_LINE0,TLE_LINE1,TLE_LINE2,SEMIMAJOR_AXIS,PERIOD,APOGEE,PERIGEE,DECAYED
55629.0,STARLINK-5497,PAYLOAD,2023-03-17 14:00:01,15.55970427,0.0003293,70.0009,71.9112,268.8866,20.3189,-0.019854,-0.01239411,0.0,0 STARLINK-5497,1 55629U 23021B   23076.58334491 -.01239411  00000-0 -19854-1 0  9991,2 55629  70.0009  71.9112 0003293 268.8866  20.3189 15.55970427  1309,6777.47,92.547,401.567,397.103,0.0
55629.0,STARLINK-5497,PAYLOAD,2023-03-17 22:00:00,15.55089165,0.0003509,70.0011,70.9939,266.207,89.0478,-0.01955,-0.01187093,0.0,0 STARLINK-5497,1 55629U 23021B   23076.91667824 -.01187093  00000-0 -19550-1 0  9998,2 55629  70.0011  70.9939 0003509 266.2070  89.0478 15.55089165  4965,6780.03,92.599,404.275,399.516,0.0
55629.0,STARLINK-5497,PAYLOAD,2023-03-18 14:00:01,15.53390543,0.0003236,70.0009,69.1627,275.3278,208.9285,-0.021719,-0.01253051,0.0,0 STARLINK-5497,1 55629U 23021B   23077.58334491 -.01253051  00000-0 -21719-1 0  9991,2 55629  70.0009  69.1627 0003236 275.3278 208.9285 15.53390543  5067,6784.972,92.7,409.033,404.642,0.0
55629.0,STARLINK-5497,PAYLOAD,2023-03-18 22:00:00,15.525162,0.0003335,70.0011,68.2491,264.1846,283.0269,-0.021538,-0.01189925,0.0,0 STARLINK-5497,1 55629U 23021B   23077.91667824 -.01189925  00000-0 -21538-1 0  9994,2 55629  70.0011  68.2491 0003335 264.1846 283.0269 15.52516200  1304,6787.519,92.753,411.648,407.121,0.0
55629.0,STARLINK-5497,PAYLOAD,2023-03-19 06:00:02,15.51380095,0.0003192,70.0008,67.3364,275.4808,333.7748,-0.0042065,-0.00241219,0.0,0 STARLINK-5497,1 55629U 23021B   23078.25002315 -.00241219  00000-0 -42065-2 0  9993,2 55629  70.0008  67.3364 0003192 275.4808 333.7748 15.51380095  5166,6790.833,92.821,414.865,410.53,0.0
55629.0,STARLINK-5497,PAYLOAD,2023-03-19 14:00:01,15.5125718,0.0003082,70.0008,66.4249,273.7695,36.404,-0.0013156,-0.00076786,0.0,0 STARLINK-5497,1 55629U 23021B   23078.58334491 -.00076786  00000-0 -13156-2 0  9996,2 55629  70.0008  66.4249 0003082 273.7695  36.4040 15.51257180  1303,6791.191,92.828,415.149,410.963,0.0
55629.0,STARLINK-5497,PAYLOAD,2023-03-19 16:00:00,15.51229502,0.0003077,70.001,66.1971,271.112,144.3001,-0.0005436,-0.00031972,0.0,0 STARLINK-5497,1 55629U 23021B   23078.66667824 -.00031972  00000-0 -54360-3 0  9995,2 55629  70.0010  66.1971 0003077 271.1120 144.3001 15.51229502  5233,6791.272,92.83,415.227,411.048,0.0
55629.0,STARLINK-5497,PAYLOAD,2023-03-19 22:00:00,15.51210636,0.0003102,70.0012,65.5138,267.0634,104.0271,0.00082928,0.00048823,0.0,0 STARLINK-5497,1 55629U 23021B   23078.91667824  .00048823  00000-0  82928-3 0  9995,2 55629  70.0012  65.5138 0003102 267.0634 104.0271 15.51210636  1300,6791.327,92.831,415.299,411.086,0.0
55629.0,STARLINK-5497,PAYLOAD,2023-03-20 08:00:01,15.51198052,0.0003156,70.0012,64.3744,275.9327,261.3162,0.00080553,0.0004739,0.0,0 STARLINK-5497,1 55629U 23021B   23079.33334491  .00047390  00000-0  80553-3 0  9993,2 55629  70.0012  64.3744 0003156 275.9327 261.3162 15.51198052  5336,6791.364,92.831,415.372,411.086,0.0
55629.0,STARLINK-5497,PAYLOAD,2023-03-20 14:00:01,15.51249459,0.0003151,70.0009,63.6908,273.3867,219.531,-0.0010089,-0.00059039,0.0,0 STARLINK-5497,1 55629U 23021B   23079.58334491 -.00059039  00000-0 -10089-2 0  9991,2 55629  70.0009  63.6908 0003151 273.3867 219.5310 15.51249459  1303,6791.214,92.828,415.219,410.939,0.0
55629.0,STARLINK-5497,PAYLOAD,2023-03-20 22:00:01,15.51233579,0.0003144,70.0012,62.7794,266.5489,287.3456,0.00014441,8.329e-05,0.0,0 STARLINK-5497,1 55629U 23021B   23079.91668981  .00008329  00000-0  14441-3 0  9993,2 55629  70.0012  62.7794 0003144 266.5489 287.3456 15.51233579  1306,6791.26,92.829,415.26,410.99,0.0
55629.0,STARLINK-5497,PAYLOAD,2023-03-21 00:00:02,15.51267977,0.0003201,70.0015,62.5515,267.626,31.4898,-0.0010794,-0.00063162,0.0,0 STARLINK-5497,1 55629U 23021B   23080.00002315 -.00063162  00000-0 -10794-2 0  9992,2 55629  70.0015  62.5515 0003201 267.6260  31.4898 15.51267977  5436,6791.16,92.827,415.199,410.851,0.0
55629.0,STARLINK-5497,PAYLOAD,2023-03-21 14:00:01,15.51238561,0.0003138,70.0014,60.9564,273.0242,42.7034,-0.00072923,-0.00042789,0.0,0 STARLINK-5497,1 55629U 23021B   23080.58335648 -.00042789  00000-0 -72923-3 0  9998,2 55629  70.0014  60.9564 0003138 273.0242  42.7034 15.51238561  5525,6791.246,92.829,415.242,410.98,0.0
55629.0,STARLINK-5497,PAYLOAD,2023-03-21 22:00:00,15.51232578,0.0003164,70.0017,60.0453,267.9399,108.6275,0.00032864,0.00019191,0.0,0 STARLINK-5497,1 55629U 23021B   23080.91667824  .00019191  00000-0  32864-3 0  9998,2 55629  70.0017  60.0453 0003164 267.9399 108.6275 15.51232578  1303,6791.263,92.829,415.277,410.979,0.0
55629.0,STARLINK-5497,PAYLOAD,2023-03-22 08:00:01,15.51195956,0.0003161,70.0018,58.906,275.9456,266.7923,0.00098232,0.000579,0.0,0 STARLINK-5497,1 55629U 23021B   23081.33334491  .00057900  00000-0  98232-3 0  9997,2 55629  70.0018  58.9060 0003161 275.9456 266.7923 15.51195956  5649,6791.37,92.832,415.382,411.088,0.0
55629.0,STARLINK-5497,PAYLOAD,2023-03-22 22:00:00,15.5120717,0.0003206,70.0023,57.3115,264.1679,295.1496,0.0008749,0.00051529,0.0,0 STARLINK-5497,1 55629U 23021B   23081.91667824  .00051529  00000-0  87490-3 0  9995,2 55629  70.0023  57.3115 0003206 264.1679 295.1496 15.51207170  5739,6791.337,92.831,415.38,411.025,0.0
55629.0,STARLINK-5497,PAYLOAD,2023-03-23 07:58:37,15.51227776,0.0003149,70.0019,56.1753,267.0907,92.9919,4.422e-05,2.434e-05,0.0,0 STARLINK-5497,1 55629U 23021B   23082.33238036  .00002434  00000-0  44220-4 0  9997,2 55629  70.0019  56.1753 0003149 267.0907  92.9919 15.51227776  6100,6791.277,92.83,415.281,411.004,0.0
55629.0,STARLINK-5497,PAYLOAD,2023-03-23 08:00:01,15.5121868,0.0003255,70.0023,56.1723,269.8826,95.5875,0.00032702,0.00019086,0.0,0 STARLINK-5497,1 55629U 23021B   23082.33334491  .00019086  00000-0  32702-3 0  9991,2 55629  70.0023  56.1723 0003255 269.8826  95.5875 15.51218680  5800,6791.304,92.83,415.379,410.958,0.0
55629.0,STARLINK-5497,PAYLOAD,2023-03-23 15:42:55,15.51228671,0.0003046,70.0019,55.2942,265.881,94.2029,5.2389e-05,2.914e-05,0.0,0 STARLINK-5497,1 55629U 23021B   23082.65480329  .00002914  00000-0  52389-4 0  9994,2 55629  70.0019  55.2942 0003046 265.8810  94.2029 15.51228671  6152,6791.275,92.83,415.208,411.071,0.0
55629.0,STARLINK-5497,PAYLOAD,2023-03-24 10:17:11,15.51237744,0.0003024,70.002,53.1803,274.6896,85.3944,5.811e-05,3.252e-05,0.0,0 STARLINK-5497,1 55629U 23021B   23083.42860911  .00003252  00000-0  58110-4 0  9993,2 55629  70.0020  53.1803 0003024 274.6896  85.3944 15.51237744  6276,6791.248,92.829,415.167,411.059,0.0
55629.0,STARLINK-5497,PAYLOAD,2023-03-25 07:57:49,15.50254396,0.0003612,70.0039,50.7146,265.4108,94.6665,-0.0052042,-0.00285149,0.0,0 STARLINK-5497,1 55629U 23021B   23084.33182757 -.00285149  00000-0 -52042-2 0  9994,2 55629  70.0039  50.7146 0003612 265.4108  94.6665 15.50254396  6113,6794.12,92.888,418.439,413.531,0.0
55629.0,STARLINK-5497,PAYLOAD,2023-03-26 06:00:00,15.47249651,0.0003353,70.0031,48.2118,278.7395,158.7442,-0.025226,-0.01176658,0.0,0 STARLINK-5497,1 55629U 23021B   23085.25001157 -.01176658  00000-0 -25226-1 0  9998,2 55629  70.0031  48.2118 0003353 278.7395 158.7442 15.47249651  6257,6802.913,93.068,427.059,422.497,0.0
55629.0,STARLINK-5497,PAYLOAD,2023-03-26 22:00:01,15.45577177,0.000313,70.0031,46.4024,265.7949,281.9898,-0.028329,-0.01240656,0.0,0 STARLINK-5497,1 55629U 23021B   23085.91668981 -.01240656  00000-0 -28329-1 0  9992,2 55629  70.0031  46.4024 0003130 265.7949 281.9898 15.45577177  6357,6807.82,93.169,431.816,427.554,0.0
55629.0,STARLINK-5497,PAYLOAD,2023-03-27 14:00:01,15.43818266,0.0003226,70.0027,44.5977,266.6508,27.221,-0.028778,-0.01191472,0.0,0 STARLINK-5497,1 55629U 23021B   23086.58334491 -.01191472  00000-0 -28778-1 0  9991,2 55629  70.0027  44.5977 0003226 266.6508  27.2210 15.43818266  1309,6812.99,93.275,437.052,432.657,0.0
55629.0,STARLINK-5497,PAYLOAD,2023-03-27 22:00:00,15.43003636,0.0003425,70.0031,43.6971,265.8729,79.5012,-0.031088,-0.01246608,0.0,0 STARLINK-5497,1 55629U 23021B   23086.91667824 -.01246608  00000-0 -31088-1 0  9997,2 55629  70.0031  43.6971 0003425 265.8729  79.5012 15.43003636  1302,6815.387,93.324,439.587,434.918,0.0
55629.0,STARLINK-5497,PAYLOAD,2023-03-28 08:00:01,15.41891206,0.0003208,70.0026,42.573,275.6209,222.7199,-0.030536,-0.01185224,0.0,0 STARLINK-5497,1 55629U 23021B   23087.33334491 -.01185224  00000-0 -30536-1 0  9998,2 55629  70.0026  42.5730 0003208 275.6209 222.7199 15.41891206  6576,6818.665,93.392,442.717,438.343,0.0
55629.0,STARLINK-5497,PAYLOAD,2023-03-28 14:00:01,15.41234191,0.0003341,70.0027,41.8997,269.7029,175.6466,-0.031001,-0.01177859,0.0,0 STARLINK-5497,1 55629U 23021B   23087.58334491 -.01177859  00000-0 -31001-1 0  9998,2 55629  70.0027  41.8997 0003341 269.7029 175.6466 15.41234191  1309,6820.603,93.432,444.746,440.189,0.0
55629.0,STARLINK-5497,PAYLOAD,2023-03-28 22:00:00,15.40424562,0.0003327,70.003,41.0027,268.0361,225.7247,-0.033789,-0.01243061,0.0,0 STARLINK-5497,1 55629U 23021B   23087.91667824 -.01243061  00000-0 -33789-1 0  9998,2 55629  70.0030  41.0027 0003327 268.0361 225.7247 15.40424562  1300,6822.992,93.481,447.127,442.587,0.0
55629.0,STARLINK-5497,PAYLOAD,2023-03-29 02:00:01,15.39960213,0.0003515,70.0027,40.5546,269.2314,68.3764,-0.033108,-0.01203342,0.0,0 STARLINK-5497,1 55629U 23021B   23088.08334491 -.01203342  00000-0 -33108-1 0  9991,2 55629  70.0027  40.5546 0003515 269.2314  68.3764 15.39960213  6694,6824.364,93.509,448.628,443.83,0.0
55629.0,STARLINK-5497,PAYLOAD,2023-03-29 14:00:01,15.38658551,0.0003327,70.0025,39.2119,266.6857,320.8669,-0.033698,-0.01175899,0.0,0 STARLINK-5497,1 55629U 23021B   23088.58334491 -.01175899  00000-0 -33698-1 0  9995,2 55629  70.0025  39.2119 0003327 266.6857 320.8669 15.38658551  1308,6828.212,93.588,452.349,447.805,0.0
